[Satellite]
VERSION=1.1
NAME=GALASSIA
NICKNAME=GALASSIA
TLE1=1 41170U 15077E   18020.48060411  .00001792  00000-0  61118-4 0  9998
TLE2=2 41170  14.9901  16.2900 0013366 169.9198 190.1392 15.12806106116024
